STARLINK-33638          
1 63436U 25069D   26167.95078454  .00053691  00000+0  96573-3 0  9994
2 63436  53.1600  36.3274 0000807 105.6965 254.4133 15.49340340 68673
STARLINK-33726          
1 63437U 25069E   26167.93611281  .00023995  00000+0  43595-3 0  9994
2 63437  53.1596  36.2372 0000915  93.5458 266.5656 15.49453568 68624
STARLINK-33681          
1 63438U 25069F   26168.50003471  .00078749  00000+0  14119-2 0  9991
2 63438  53.1580  33.5704 0001112  95.2120 156.4280 15.49264819  5789
STARLINK-33730          
1 63439U 25069G   26167.90748730  .00065380  00000+0  11734-2 0  9996
2 63439  53.1596  36.7712 0001237  52.0208 308.0912 15.49316860 68664
STARLINK-33743          
1 63440U 25069H   26167.93039167  .00058630  00000+0  10529-2 0  9999
2 63440  53.1600  36.9116 0000993  76.6975 283.4145 15.49346668 68554
STARLINK-33715          
1 63441U 25069J   26167.93307414  .00058866  00000+0  10567-2 0  9996
2 63441  53.1579  36.2103 0002249  93.9641 266.1625 15.49356461 68673
STARLINK-33762          
1 63442U 25069K   26167.93307902  .00042963  00000+0  77607-3 0  9999
2 63442  53.1593  36.2106 0001992  30.3090 329.8034 15.49316222 68672
STARLINK-33753          
1 63443U 25069L   26168.50003471  .00056591  00000+0  16218-2 0  9990
2 63443  53.1596  33.8083 0000902  96.0189  34.2807 15.35386490  5946
STARLINK-33747          
1 63444U 25069M   26168.50003471 -.02061458  00000+0 -55417-1 0  9996
2 63444  53.1599  33.9772 0001028  73.8113 331.5740 15.41033381  5883
STARLINK-33659          
1 63445U 25069N   26167.95583696  .00040457  00000+0  73107-3 0  9997
2 63445  53.1584  36.3599 0001131  65.9008 294.2119 15.49333831 68629
STARLINK-33746          
1 63446U 25069P   26168.50003471  .00052885  00000+0  15668-2 0  9993
2 63446  53.1598  33.8571 0001163 101.1953   2.6109 15.34371406  5898
STARLINK-33799          
1 63447U 25069Q   26167.92102258  .00019174  00000+0  65772-3 0  9998
2 63447  53.1603  41.8266 0001422  88.1126 272.0038 15.30205214 68487
STARLINK-33797          
1 63448U 25069R   26168.50003471 -.00846023  00000+0 -25786-1 0  9993
2 63448  53.1597  34.0759 0001372 110.0204 244.7638 15.35969500  5941
STARLINK-33798          
1 63449U 25069S   26168.50003471  .00078593  00000+0  23166-2 0  9992
2 63449  53.1606  34.0523 0001465 119.3492 239.8198 15.34350595  5949
STARLINK-33736          
1 63450U 25069T   26168.50003471 -.01827511  00000+0 -45625-1 0  9992
2 63450  53.1595  33.9210 0000808 105.8880 325.7232 15.42808947  5830
STARLINK-33740          
1 63451U 25069U   26167.87502500  .00041458  00000+0  74884-3 0  9995
2 63451  53.1598  36.5586 0001114 100.1535 259.9600 15.49334557 68558
STARLINK-33763          
1 63452U 25069V   26167.90346547  .00032431  00000+0  96622-3 0  9992
2 63452  53.1614  36.7284 0001170  75.0625 285.0507 15.34419878 68669
STARLINK-33784          
1 63453U 25069W   26167.91996302  .00018109  00000+0  62182-3 0  9994
2 63453  53.1600  41.8195 0001489  96.3526 263.7644 15.30212047 68594
STARLINK-33768          
1 63454U 25069X   26168.00002315  .00034738  00000+0  10357-2 0  9990
2 63454  53.1603  36.2986 0000766  82.5959  79.5658 15.34364800  5923
STARLINK-33761          
1 63455U 25069Y   26168.50003471  .00050806  00000+0  15062-2 0  9992
2 63455  53.1592  33.7532 0000983 104.4808  45.8658 15.34367756  5949
STARLINK-33737          
1 63456U 25069Z   26167.91031990  .00079371  00000+0  14172-2 0  9993
2 63456  53.1592  36.7649 0000163 226.1323 133.9672 15.49378474 68552
STARLINK-33795          
1 63457U 25069AA  26168.50003471 -.01813669  00000+0 -41809-1 0  9998
2 63457  53.1593  34.1099 0000991 109.8545 223.2088 15.45117260  5899
STARLINK-33756          
1 63458U 25069AB  26168.50003471  .00063212  00000+0  18693-2 0  9993
2 63458  53.1600  33.8843 0001026 116.0531 324.5358 15.34349297  5897
STARLINK-33780          
1 63459U 25069AC  26168.50003471 -.01220002  00000+0 -32543-1 0  9998
2 63459  53.1598  34.0231 0000769 106.9522 265.0128 15.40594964  5949
STARLINK-33679          
1 63460U 25070A   26167.42617672  .00016628  00000+0  61195-3 0  9997
2 63460  43.0060  62.5062 0002111 268.9995  91.0614 15.27603665 68071
STARLINK-33706          
1 63461U 25070B   26167.42999644  .00001406  00000+0  60601-4 0  9990
2 63461  43.0029  62.5018 0000872 280.7375  79.3378 15.27583109 68070
STARLINK-33691          
1 63462U 25070C   26166.98630841  .00024012  00000+0  87879-3 0  9995
2 63462  43.0060  64.3316 0001911 275.3243  84.7391 15.27597065 67964
STARLINK-33696          
1 63463U 25070D   26167.99279647  .00015540  00000+0  57268-3 0  9996
2 63463  43.0004  58.9881 0002018 274.8852  85.1769 15.27600884 68169
STARLINK-33701          
1 63464U 25070E   26167.43389007  .00017887  00000+0  65778-3 0  9999
2 63464  43.0014  62.5295 0000490 233.0035 127.0772 15.27588408 68070
STARLINK-33685          
1 63465U 25070F   26168.00436584  .00012923  00000+0  47813-3 0  9993
2 63465  43.0034  59.0736 0001378 267.9743  92.0950 15.27593067 68168
