OBJECT_NAME,OBJECT_ID,EPOCH,MEAN_MOTION,ECCENTRICITY,INCLINATION,RA_OF_ASC_NODE,ARG_OF_PERICENTER,MEAN_ANOMALY,EPHEMERIS_TYPE,CLASSIFICATION_TYPE,NORAD_CAT_ID,ELEMENT_SET_NO,REV_AT_EPOCH,BSTAR,MEAN_MOTION_DOT,MEAN_MOTION_DDOT
STARLINK-33638,2025-069D,2026-06-16T22:49:07.784256,15.49340340,.0000807,53.1600,36.3274,105.6965,254.4133,0,U,63436,999,6867,.96573E-3,.53691E-3,0
STARLINK-33726,2025-069E,2026-06-16T22:28:00.146784,15.49453568,.0000915,53.1596,36.2372,93.5458,266.5656,0,U,63437,999,6862,.43595E-3,.23995E-3,0
STARLINK-33681,2025-069F,2026-06-17T12:00:02.998944,15.49264819,.0001112,53.1580,33.5704,95.2120,156.4280,0,U,63438,999,578,.14119E-2,.78749E-3,0
STARLINK-33730,2025-069G,2026-06-16T21:46:46.902720,15.49316860,.0001237,53.1596,36.7712,52.0208,308.0912,0,U,63439,999,6866,.11734E-2,.6538E-3,0
STARLINK-33743,2025-069H,2026-06-16T22:19:45.840288,15.49346668,.0000993,53.1600,36.9116,76.6975,283.4145,0,U,63440,999,6855,.10529E-2,.5863E-3,0
STARLINK-33715,2025-069J,2026-06-16T22:23:37.605696,15.49356461,.0002249,53.1579,36.2103,93.9641,266.1625,0,U,63441,999,6867,.10567E-2,.58866E-3,0
STARLINK-33762,2025-069K,2026-06-16T22:23:38.027328,15.49316222,.0001992,53.1593,36.2106,30.3090,329.8034,0,U,63442,999,6867,.77607E-3,.42963E-3,0
STARLINK-33753,2025-069L,2026-06-17T12:00:02.998944,15.35386490,.0000902,53.1596,33.8083,96.0189,34.2807,0,U,63443,999,594,.16218E-2,.56591E-3,0
STARLINK-33747,2025-069M,2026-06-17T12:00:02.998944,15.41033381,.0001028,53.1599,33.9772,73.8113,331.5740,0,U,63444,999,588,-.55417E-1,-.2061458E-1,0
STARLINK-33659,2025-069N,2026-06-16T22:56:24.313344,15.49333831,.0001131,53.1584,36.3599,65.9008,294.2119,0,U,63445,999,6862,.73107E-3,.40457E-3,0
STARLINK-33746,2025-069P,2026-06-17T12:00:02.998944,15.34371406,.0001163,53.1598,33.8571,101.1953,2.6109,0,U,63446,999,589,.15668E-2,.52885E-3,0
STARLINK-33799,2025-069Q,2026-06-16T22:06:16.350912,15.30205214,.0001422,53.1603,41.8266,88.1126,272.0038,0,U,63447,999,6848,.65772E-3,.19174E-3,0
STARLINK-33797,2025-069R,2026-06-17T12:00:02.998944,15.35969500,.0001372,53.1597,34.0759,110.0204,244.7638,0,U,63448,999,594,-.25786E-1,-.846023E-2,0
STARLINK-33798,2025-069S,2026-06-17T12:00:02.998944,15.34350595,.0001465,53.1606,34.0523,119.3492,239.8198,0,U,63449,999,594,.23166E-2,.78593E-3,0
STARLINK-33736,2025-069T,2026-06-17T12:00:02.998944,15.42808947,.0000808,53.1595,33.9210,105.8880,325.7232,0,U,63450,999,583,-.45625E-1,-.1827511E-1,0
STARLINK-33740,2025-069U,2026-06-16T21:00:02.160000,15.49334557,.0001114,53.1598,36.5586,100.1535,259.9600,0,U,63451,999,6855,.74884E-3,.41458E-3,0
STARLINK-33763,2025-069V,2026-06-16T21:40:59.416608,15.34419878,.000117,53.1614,36.7284,75.0625,285.0507,0,U,63452,999,6866,.96622E-3,.32431E-3,0
STARLINK-33784,2025-069W,2026-06-16T22:04:44.804928,15.30212047,.0001489,53.1600,41.8195,96.3526,263.7644,0,U,63453,999,6859,.62182E-3,.18109E-3,0
STARLINK-33768,2025-069X,2026-06-17T00:00:02.000160,15.34364800,.0000766,53.1603,36.2986,82.5959,79.5658,0,U,63454,999,592,.10357E-2,.34738E-3,0
STARLINK-33761,2025-069Y,2026-06-17T12:00:02.998944,15.34367756,.0000983,53.1592,33.7532,104.4808,45.8658,0,U,63455,999,594,.15062E-2,.50806E-3,0
STARLINK-33737,2025-069Z,2026-06-16T21:50:51.639360,15.49378474,.0000163,53.1592,36.7649,226.1323,133.9672,0,U,63456,999,6855,.14172E-2,.79371E-3,0
STARLINK-33795,2025-069AA,2026-06-17T12:00:02.998944,15.45117260,.0000991,53.1593,34.1099,109.8545,223.2088,0,U,63457,999,589,-.41809E-1,-.1813669E-1,0
STARLINK-33756,2025-069AB,2026-06-17T12:00:02.998944,15.34349297,.0001026,53.1600,33.8843,116.0531,324.5358,0,U,63458,999,589,.18693E-2,.63212E-3,0
STARLINK-33780,2025-069AC,2026-06-17T12:00:02.998944,15.40594964,.0000769,53.1598,34.0231,106.9522,265.0128,0,U,63459,999,594,-.32543E-1,-.1220002E-1,0
STARLINK-33679,2025-070A,2026-06-16T10:13:41.668608,15.27603665,.00021113,43.0060,62.5062,268.9995,91.0614,0,U,63460,999,6807,.61195287E-3,.16628E-3,0
STARLINK-33706,2025-070B,2026-06-16T10:19:11.692416,15.27583109,.00008726,43.0029,62.5018,280.7375,79.3378,0,U,63461,999,6807,.60601296E-4,.1406E-4,0
STARLINK-33691,2025-070C,2026-06-15T23:40:17.046624,15.27597065,.00019111,43.0060,64.3316,275.3243,84.7391,0,U,63462,999,6796,.87879482E-3,.24012E-3,0
STARLINK-33696,2025-070D,2026-06-16T23:49:37.615008,15.27600884,.0002018,43.0004,58.9881,274.8852,85.1769,0,U,63463,999,6816,.57268E-3,.1554E-3,0
STARLINK-33701,2025-070E,2026-06-16T10:24:48.102048,15.27588408,.00004907,43.0014,62.5295,233.0035,127.0772,0,U,63464,999,6807,.65778095E-3,.17887E-3,0
STARLINK-33685,2025-070F,2026-06-17T00:06:17.208576,15.27593067,.0001378,43.0034,59.0736,267.9743,92.0950,0,U,63465,999,6816,.47813E-3,.12923E-3,0
